[{"OBJECT_NAME":"STARLINK-31393","OBJECT_ID":"2024-049X","EPOCH":"2026-03-09T05:28:32.217024","MEAN_MOTION":15.27571272,"ECCENTRICITY":6.176e-5,"INCLINATION":43.0004,"RA_OF_ASC_NODE":131.5827,"ARG_OF_PERICENTER":279.7597,"MEAN_ANOMALY":80.3185,"EPHEMERIS_TYPE":0,"CLASSIFICATION_TYPE":"U","NORAD_CAT_ID":59252,"ELEMENT_SET_NO":999,"REV_AT_EPOCH":11250,"BSTAR":-3.4105283e-5,"MEAN_MOTION_DOT":-1.2e-5,"MEAN_MOTION_DDOT":0},{"OBJECT_NAME":"COSMOS 1862","OBJECT_ID":"1987-055A","EPOCH":"2026-03-09T22:37:02.390592","MEAN_MOTION":15.30492139,"ECCENTRICITY":0.00097484,"INCLINATION":82.4856,"RA_OF_ASC_NODE":47.1862,"ARG_OF_PERICENTER":26.6325,"MEAN_ANOMALY":333.5414,"EPHEMERIS_TYPE":0,"CLASSIFICATION_TYPE":"U","NORAD_CAT_ID":18152,"ELEMENT_SET_NO":999,"REV_AT_EPOCH":8987,"BSTAR":0.00034125048,"MEAN_MOTION_DOT":0.00010107,"MEAN_MOTION_DDOT":0}]
